OOV-CUBE (TUBSAT-30)    
1 60240U 24128F   26117.21517684  .00002949  00000+0  23072-3 0  9990
2 60240  61.9961  43.2739 0050431 122.5712 238.0264 15.02514360 98455
LPNTSAT-001 (IOD-1)     
1 68408U 26065A   26115.62072985  .00002338  00000+0  11668-3 0  9999
2 68408  97.4087 357.2309 0016893 181.6655 178.4526 15.18368758  4280
